[{"OBJECT_NAME":"GAOFEN-10R","OBJECT_ID":"2019-066A","EPOCH":"2026-03-09T23:14:29.289984","MEAN_MOTION":14.83155833,"ECCENTRICITY":0.00081973,"INCLINATION":98.0397,"RA_OF_ASC_NODE":21.897,"ARG_OF_PERICENTER":105.6349,"MEAN_ANOMALY":254.577,"EPHEMERIS_TYPE":0,"CLASSIFICATION_TYPE":"U","NORAD_CAT_ID":44622,"ELEMENT_SET_NO":999,"REV_AT_EPOCH":34767,"BSTAR":0.00026312767,"MEAN_MOTION_DOT":2.093e-5,"MEAN_MOTION_DDOT":0},{"OBJECT_NAME":"SL-14 R\/B","OBJECT_ID":"1986-034B","EPOCH":"2026-03-09T17:33:34.706880","MEAN_MOTION":14.85668691,"ECCENTRICITY":0.00196698,"INCLINATION":82.5555,"RA_OF_ASC_NODE":146.993,"ARG_OF_PERICENTER":20.7414,"MEAN_ANOMALY":99.0212,"EPHEMERIS_TYPE":0,"CLASSIFICATION_TYPE":"U","NORAD_CAT_ID":16720,"ELEMENT_SET_NO":999,"REV_AT_EPOCH":13087,"BSTAR":5.9834007e-5,"MEAN_MOTION_DOT":5.45e-6,"MEAN_MOTION_DDOT":0}]
